JY1SAT (JO-97)          
1 43803U 18099AX  26068.68634132  .00017774  00000+0  60804-3 0  9996
2 43803  97.4249 131.3625 0004723 256.6795 103.3919 15.30302628398390
STARLINK-32238          
1 61661U 24193A   26068.49174349  .00000324  00000+0  23050-4 0  9994
2 61661  53.1598  92.1191 0001034  83.4153 276.6966 15.30192435 76499
